{"type": "FeatureCollection", "features": [ {"type": "Feature", "properties": {"norad_id": 66535, "name": "STARLINK-35514", "group": "last-30-days", "lat": -39.8044440421765, "lon": -75.54675135741506, "alt_km": 416.61122752012943, "timestamp": "2025-12-14T22:38:39.516551+00:00", "meta": {"OBJECT_NAME": "STARLINK-35514", "OBJECT_ID": "2025-265V", "EPOCH": "2025-12-14T04:34:02.658720", "MEAN_MOTION": 15.50600982, "ECCENTRICITY": 0.00016388, "INCLINATION": 42.9995, "RA_OF_ASC_NODE": 45.4472, "ARG_OF_PERICENTER": 259.4336, "MEAN_ANOMALY": 100.634, "EPHEMERIS_TYPE": 0, "CLASSIFICATION_TYPE": "U", "NORAD_CAT_ID": 66535, "ELEMENT_SET_NO": 999, "REV_AT_EPOCH": 398, "BSTAR": 0.0020450132, "MEAN_MOTION_DOT": 0.00121606, "MEAN_MOTION_DDOT": 0}, "tle": {"line1": "1 66535U 25265V   25348.19030855  .00121606  00000+0  20450-2 0  9996", "line2": "2 66535  42.9995  45.4472 0001638 259.4336 100.6340 15.50600982  3981"}}, "geometry": {"type": "Point", "coordinates": [-75.54675135741506, -39.8044440421765]}}, {"type": "Feature", "properties": {"norad_id": 66536, "name": "STARLINK-35640", "group": "last-30-days", "lat": -40.339453468676616, "lon": -73.2677181603947, "alt_km": 416.90277713733485, "timestamp": "2025-12-14T22:38:39.516561+00:00", "meta": {"OBJECT_NAME": "STARLINK-35640", "OBJECT_ID": "2025-265W", "EPOCH": "2025-12-14T04:33:33.058944", "MEAN_MOTION": 15.50590877, "ECCENTRICITY": 0.00014399, "INCLINATION": 42.9992, "RA_OF_ASC_NODE": 45.4445, "ARG_OF_PERICENTER": 254.1377, "MEAN_ANOMALY": 105.9325, "EPHEMERIS_TYPE": 0, "CLASSIFICATION_TYPE": "U", "NORAD_CAT_ID": 66536, "ELEMENT_SET_NO": 999, "REV_AT_EPOCH": 398, "BSTAR": 0.0015283382, "MEAN_MOTION_DOT": 0.00090399, "MEAN_MOTION_DDOT": 0}, "tle": {"line1": "1 66536U 25265W   25348.18996596  .00090399  00000+0  15283-2 0  9991", "line2": "2 66536  42.9992  45.4445 0001439 254.1377 105.9325 15.50590877  3987"}}, "geometry": {"type": "Point", "coordinates": [-73.2677181603947, -40.339453468676616]}}, {"type": "Feature", "properties": {"norad_id": 66537, "name": "STARLINK-35582", "group": "last-30-days", "lat": -40.854209984115094, "lon": -70.83100088825093, "alt_km": 416.9250801184362, "timestamp": "2025-12-14T22:38:39.516571+00:00", "meta": {"OBJECT_NAME": "STARLINK-35582", "OBJECT_ID": "2025-265X", "EPOCH": "2025-12-14T04:33:03.611232", "MEAN_MOTION": 15.50583357, "ECCENTRICITY": 0.0001471, "INCLINATION": 42.9999, "RA_OF_ASC_NODE": 45.4424, "ARG_OF_PERICENTER": 276.1313, "MEAN_ANOMALY": 83.9379, "EPHEMERIS_TYPE": 0, "CLASSIFICATION_TYPE": "U", "NORAD_CAT_ID": 66537, "ELEMENT_SET_NO": 999, "REV_AT_EPOCH": 398, "BSTAR": 0.0019302166, "MEAN_MOTION_DOT": 0.00114584, "MEAN_MOTION_DDOT": 0}, "tle": {"line1": "1 66537U 25265X   25348.18962513  .00114584  00000+0  19302-2 0  9993", "line2": "2 66537  42.9999  45.4424 0001471 276.1313  83.9379 15.50583357  3981"}}, "geometry": {"type": "Point", "coordinates": [-70.83100088825093, -40.854209984115094]}}, {"type": "Feature", "properties": {"norad_id": 66538, "name": "STARLINK-35577", "group": "last-30-days", "lat": -41.3250225525729, "lon": -68.31386623299716, "alt_km": 416.79582350152305, "timestamp": "2025-12-14T22:38:39.516583+00:00", "meta": {"OBJECT_NAME": "STARLINK-35577", "OBJECT_ID": "2025-265Y", "EPOCH": "2025-12-14T04:32:33.653760", "MEAN_MOTION": 15.50614128, "ECCENTRICITY": 0.0001646, "INCLINATION": 43.001, "RA_OF_ASC_NODE": 45.4393, "ARG_OF_PERICENTER": 266.4101, "MEAN_ANOMALY": 93.6571, "EPHEMERIS_TYPE": 0, "CLASSIFICATION_TYPE": "U", "NORAD_CAT_ID": 66538, "ELEMENT_SET_NO": 999, "REV_AT_EPOCH": 398, "BSTAR": 0.001426202, "MEAN_MOTION_DOT": 0.00084339, "MEAN_MOTION_DDOT": 0}, "tle": {"line1": "1 66538U 25265Y   25348.18927840  .00084339  00000+0  14262-2 0  9992", "line2": "2 66538  43.0010  45.4393 0001646 266.4101  93.6571 15.50614128  3987"}}, "geometry": {"type": "Point", "coordinates": [-68.31386623299716, -41.3250225525729]}}, {"type": "Feature", "properties": {"norad_id": 66539, "name": "STARLINK-35697", "group": "last-30-days", "lat": -41.738800157957776, "lon": -65.75745148368388, "alt_km": 416.8294130529657, "timestamp": "2025-12-14T22:38:39.516596+00:00", "meta": {"OBJECT_NAME": "STARLINK-35697", "OBJECT_ID": "2025-265Z", "EPOCH": "2025-12-14T04:32:04.248384", "MEAN_MOTION": 15.50597222, "ECCENTRICITY": 0.00014167, "INCLINATION": 43.0002, "RA_OF_ASC_NODE": 45.4367, "ARG_OF_PERICENTER": 276.0438, "MEAN_ANOMALY": 84.0261, "EPHEMERIS_TYPE": 0, "CLASSIFICATION_TYPE": "U", "NORAD_CAT_ID": 66539, "ELEMENT_SET_NO": 999, "REV_AT_EPOCH": 398, "BSTAR": 0.002306801, "MEAN_MOTION_DOT": 0.00137479, "MEAN_MOTION_DDOT": 0}, "tle": {"line1": "1 66539U 25265Z   25348.18893806  .00137479  00000+0  23068-2 0  9995", "line2": "2 66539  43.0002  45.4367 0001416 276.0438  84.0261 15.50597222  3980"}}, "geometry": {"type": "Point", "coordinates": [-65.75745148368388, -41.738800157957776]}}, {"type": "Feature", "properties": {"norad_id": 66540, "name": "STARLINK-35818", "group": "last-30-days", "lat": -42.075748546224354, "lon": -63.3098566745285, "alt_km": 416.9676825225688, "timestamp": "2025-12-14T22:38:39.516606+00:00", "meta": {"OBJECT_NAME": "STARLINK-35818", "OBJECT_ID": "2025-265AA", "EPOCH": "2025-12-14T04:31:34.410144", "MEAN_MOTION": 15.50598715, "ECCENTRICITY": 0.00014817, "INCLINATION": 42.9976, "RA_OF_ASC_NODE": 45.4323, "ARG_OF_PERICENTER": 279.9955, "MEAN_ANOMALY": 80.0737, "EPHEMERIS_TYPE": 0, "CLASSIFICATION_TYPE": "U", "NORAD_CAT_ID": 66540, "ELEMENT_SET_NO": 999, "REV_AT_EPOCH": 398, "BSTAR": 0.0017001066, "MEAN_MOTION_DOT": 0.0010076, "MEAN_MOTION_DDOT": 0}, "tle": {"line1": "1 66540U 25265AA  25348.18859271  .00100760  00000+0  17001-2 0  9998", "line2": "2 66540  42.9976  45.4323 0001481 279.9955  80.0737 15.50598715  3982"}}, "geometry": {"type": "Point", "coordinates": [-63.3098566745285, -42.075748546224354]}}, {"type": "Feature", "properties": {"norad_id": 66541, "name": "STARLINK-35796", "group": "last-30-days", "lat": -26.285212846989896, "lon": -106.87976886241682, "alt_km": 445.56151431125636, "timestamp": "2025-12-14T22:38:39.516616+00:00", "meta": {"OBJECT_NAME": "STARLINK-35796", "OBJECT_ID": "2025-265AB", "EPOCH": "2025-12-14T06:00:02.999808", "MEAN_MOTION": 15.43476424, "ECCENTRICITY": 8.487e-05, "INCLINATION": 43.0002, "RA_OF_ASC_NODE": 45.1189, "ARG_OF_PERICENTER": 273.1235, "MEAN_ANOMALY": 52.6815, "EPHEMERIS_TYPE": 0, "CLASSIFICATION_TYPE": "U", "NORAD_CAT_ID": 66541, "ELEMENT_SET_NO": 999, "REV_AT_EPOCH": 523, "BSTAR": -0.042276153, "MEAN_MOTION_DOT": -0.01753042, "MEAN_MOTION_DDOT": 0}, "tle": {"line1": "1 66541U 25265AB  25348.25003472 -.01753042  00000+0 -42276-1 0  9992", "line2": "2 66541  43.0002  45.1189 0000848 273.1235  52.6815 15.43476424  5231"}}, "geometry": {"type": "Point", "coordinates": [-106.87976886241682, -26.285212846989896]}}, {"type": "Feature", "properties": {"norad_id": 66542, "name": "STARLINK-35833", "group": "last-30-days", "lat": -42.64114682056869, "lon": -57.782356073461536, "alt_km": 416.62751460709933, "timestamp": "2025-12-14T22:38:39.516626+00:00", "meta": {"OBJECT_NAME": "STARLINK-35833", "OBJECT_ID": "2025-265AC", "EPOCH": "2025-12-13T20:46:47.765568", "MEAN_MOTION": 15.50597486, "ECCENTRICITY": 0.0001633, "INCLINATION": 42.9989, "RA_OF_ASC_NODE": 47.3121, "ARG_OF_PERICENTER": 282.13, "MEAN_ANOMALY": 77.9378, "EPHEMERIS_TYPE": 0, "CLASSIFICATION_TYPE": "U", "NORAD_CAT_ID": 66542, "ELEMENT_SET_NO": 999, "REV_AT_EPOCH": 393, "BSTAR": 0.0019500496, "MEAN_MOTION_DOT": 0.00115843, "MEAN_MOTION_DDOT": 0}, "tle": {"line1": "1 66542U 25265AC  25347.86583062  .00115843  00000+0  19500-2 0  9990", "line2": "2 66542  42.9989  47.3121 0001633 282.1300  77.9378 15.50597486  3939"}}, "geometry": {"type": "Point", "coordinates": [-57.782356073461536, -42.64114682056869]}}, {"type": "Feature", "properties": {"norad_id": 66543, "name": "STARLINK-35315", "group": "last-30-days", "lat": -42.79341379472861, "lon": -55.52650796802322, "alt_km": 417.11029826362847, "timestamp": "2025-12-14T22:38:39.516636+00:00", "meta": {"OBJECT_NAME": "STARLINK-35315", "OBJECT_ID": "2025-265AD", "EPOCH": "2025-12-13T20:46:18.204672", "MEAN_MOTION": 15.50578054, "ECCENTRICITY": 0.00012545, "INCLINATION": 42.9997, "RA_OF_ASC_NODE": 47.3094, "ARG_OF_PERICENTER": 267.5322, "MEAN_ANOMALY": 92.5394, "EPHEMERIS_TYPE": 0, "CLASSIFICATION_TYPE": "U", "NORAD_CAT_ID": 66543, "ELEMENT_SET_NO": 999, "REV_AT_EPOCH": 393, "BSTAR": 0.0012393516, "MEAN_MOTION_DOT": 0.00073044, "MEAN_MOTION_DDOT": 0}, "tle": {"line1": "1 66543U 25265AD  25347.86548848  .00073044  00000+0  12394-2 0  9994", "line2": "2 66543  42.9997  47.3094 0001254 267.5322  92.5394 15.50578054  3939"}}, "geometry": {"type": "Point", "coordinates": [-55.52650796802322, -42.79341379472861]}}, {"type": "Feature", "properties": {"norad_id": 66544, "name": "STARLINK-35728", "group": "last-30-days", "lat": -42.91077962025144, "lon": -52.94572435382502, "alt_km": 416.93208193052305, "timestamp": "2025-12-14T22:38:39.516647+00:00", "meta": {"OBJECT_NAME": "STARLINK-35728", "OBJECT_ID": "2025-265AE", "EPOCH": "2025-12-14T04:29:36.065472", "MEAN_MOTION": 15.50598, "ECCENTRICITY": 0.0001302, "INCLINATION": 42.9989, "RA_OF_ASC_NODE": 45.4216, "ARG_OF_PERICENTER": 261.1276, "MEAN_ANOMALY": 98.9437, "EPHEMERIS_TYPE": 0, "CLASSIFICATION_TYPE": "U", "NORAD_CAT_ID": 66544, "ELEMENT_SET_NO": 999, "REV_AT_EPOCH": 398, "BSTAR": 0.0020737352, "MEAN_MOTION_DOT": 0.00123332, "MEAN_MOTION_DDOT": 0}, "tle": {"line1": "1 66544U 25265AE  25348.18722298  .00123332  00000+0  20737-2 0  9990", "line2": "2 66544  42.9989  45.4216 0001302 261.1276  98.9437 15.50598000  3984"}}, "geometry": {"type": "Point", "coordinates": [-52.94572435382502, -42.91077962025144]}}]}